0 FENGYUN 1C DEB
1 36141U 99025DRN 13288.25631086  .00003037  00000-0  21530-2 0  2093
2 36141 098.4780 082.0823 0161788 153.0577 208.2430 13.92273886233720
0 FENGYUN 1C DEB
1 36141U 99025DRN 13290.26847786  .00003564  00000-0  25232-2 0  2103
2 36141 098.4466 083.9146 0160856 148.1323 213.0695 13.92297172234001
0 FENGYUN 1C DEB
1 36141U 99025DRN 13291.20269523  .00003420  00000-0  24079-2 0  2115
2 36141 098.4852 084.7731 0165360 145.7648 215.4426 13.92300396234132
0 FENGYUN 1C DEB
1 36141U 99025DRN 13294.22097223  .00003790  00000-0  26764-2 0  2120
2 36141 098.4614 087.5447 0161865 136.9839 224.4912 13.92330134234552
0 FENGYUN 1C DEB
1 36141U 99025DRN 13295.22703138  .00003802  00000-0  26719-2 0  2135
2 36141 098.4593 088.4691 0165475 136.9212 224.6480 13.92338539234699
0 FENGYUN 1C DEB
1 36141U 99025DRN 13295.65817600  .00003820  00000-0  26898-2 0  2141
2 36141 098.4710 088.8519 0163909 134.1313 227.2645 13.92341765234759
